CCSDS_OMM_VERS = 2.0
CREATION_DATE  = 
ORIGINATOR     = 

OBJECT_NAME    = 2025-226A
OBJECT_ID      = 2025-226A
CENTER_NAME    = EARTH
REF_FRAME      = TEME
TIME_SYSTEM    = UTC
MEAN_ELEMENT_THEORY = SGP/SGP4

EPOCH          = 2025-11-08T12:55:11.293824
MEAN_MOTION    = 15.12039141
ECCENTRICITY   = .001524
INCLINATION    = 97.6659
RA_OF_ASC_NODE = 26.7562
ARG_OF_PERICENTER = 182.0337
MEAN_ANOMALY   = 178.0833

EPHEMERIS_TYPE = 0
CLASSIFICATION_TYPE = U
NORAD_CAT_ID   = 65938
ELEMENT_SET_NO = 999
REV_AT_EPOCH   = 430
BSTAR          = .74086E-3
MEAN_MOTION_DOT = .12715E-3
MEAN_MOTION_DDOT = 0

CCSDS_OMM_VERS = 2.0
CREATION_DATE  = 
ORIGINATOR     = 

OBJECT_NAME    = 2025-226B
OBJECT_ID      = 2025-226B
CENTER_NAME    = EARTH
REF_FRAME      = TEME
TIME_SYSTEM    = UTC
MEAN_ELEMENT_THEORY = SGP/SGP4

EPOCH          = 2025-11-08T12:08:49.237152
MEAN_MOTION    = 15.09817951
ECCENTRICITY   = .002132
INCLINATION    = 97.6611
RA_OF_ASC_NODE = 26.6303
ARG_OF_PERICENTER = 186.4699
MEAN_ANOMALY   = 173.6257

EPHEMERIS_TYPE = 0
CLASSIFICATION_TYPE = U
NORAD_CAT_ID   = 65939
ELEMENT_SET_NO = 999
REV_AT_EPOCH   = 428
BSTAR          = .49206E-3
MEAN_MOTION_DOT = .7934E-4
MEAN_MOTION_DDOT = 0

CCSDS_OMM_VERS = 2.0
CREATION_DATE  = 
ORIGINATOR     = 

OBJECT_NAME    = 2025-226C
OBJECT_ID      = 2025-226C
CENTER_NAME    = EARTH
REF_FRAME      = TEME
TIME_SYSTEM    = UTC
MEAN_ELEMENT_THEORY = SGP/SGP4

EPOCH          = 2025-11-08T12:58:13.138176
MEAN_MOTION    = 15.11926015
ECCENTRICITY   = .0015204
INCLINATION    = 97.6568
RA_OF_ASC_NODE = 26.7218
ARG_OF_PERICENTER = 180.1417
MEAN_ANOMALY   = 179.9811

EPHEMERIS_TYPE = 0
CLASSIFICATION_TYPE = U
NORAD_CAT_ID   = 65940
ELEMENT_SET_NO = 999
REV_AT_EPOCH   = 429
BSTAR          = .74762E-3
MEAN_MOTION_DOT = .12791E-3
MEAN_MOTION_DDOT = 0

CCSDS_OMM_VERS = 2.0
CREATION_DATE  = 
ORIGINATOR     = 

OBJECT_NAME    = YOTSUBA-KULOVER
OBJECT_ID      = 1998-067XN
CENTER_NAME    = EARTH
REF_FRAME      = TEME
TIME_SYSTEM    = UTC
MEAN_ELEMENT_THEORY = SGP/SGP4

EPOCH          = 2025-11-08T07:19:14.163456
MEAN_MOTION    = 15.54104125
ECCENTRICITY   = .00026093
INCLINATION    = 51.6319
RA_OF_ASC_NODE = 312.3485
ARG_OF_PERICENTER = 25.0713
MEAN_ANOMALY   = 335.0404

EPHEMERIS_TYPE = 0
CLASSIFICATION_TYPE = U
NORAD_CAT_ID   = 65941
ELEMENT_SET_NO = 999
REV_AT_EPOCH   = 449
BSTAR          = .99591995E-3
MEAN_MOTION_DOT = .65941E-3
MEAN_MOTION_DDOT = 0

CCSDS_OMM_VERS = 2.0
CREATION_DATE  = 
ORIGINATOR     = 

OBJECT_NAME    = BOTAN
OBJECT_ID      = 1998-067XP
CENTER_NAME    = EARTH
REF_FRAME      = TEME
TIME_SYSTEM    = UTC
MEAN_ELEMENT_THEORY = SGP/SGP4

EPOCH          = 2025-11-08T05:31:57.133632
MEAN_MOTION    = 15.55235340
ECCENTRICITY   = .00047087
INCLINATION    = 51.6318
RA_OF_ASC_NODE = 312.6015
ARG_OF_PERICENTER = 39.0396
MEAN_ANOMALY   = 321.0934

EPHEMERIS_TYPE = 0
CLASSIFICATION_TYPE = U
NORAD_CAT_ID   = 65942
ELEMENT_SET_NO = 999
REV_AT_EPOCH   = 448
BSTAR          = .13745477E-2
MEAN_MOTION_DOT = .95447E-3
MEAN_MOTION_DDOT = 0

CCSDS_OMM_VERS = 2.0
CREATION_DATE  = 
ORIGINATOR     = 

OBJECT_NAME    = E-KAGAKU-1
OBJECT_ID      = 1998-067XQ
CENTER_NAME    = EARTH
REF_FRAME      = TEME
TIME_SYSTEM    = UTC
MEAN_ELEMENT_THEORY = SGP/SGP4

EPOCH          = 2025-11-08T07:18:35.988480
MEAN_MOTION    = 15.54104514
ECCENTRICITY   = .00044461
INCLINATION    = 51.6329
RA_OF_ASC_NODE = 312.3461
ARG_OF_PERICENTER = 27.3880
MEAN_ANOMALY   = 332.7345

EPHEMERIS_TYPE = 0
CLASSIFICATION_TYPE = U
NORAD_CAT_ID   = 65943
ELEMENT_SET_NO = 999
REV_AT_EPOCH   = 449
BSTAR          = .10114476E-2
MEAN_MOTION_DOT = .67002E-3
MEAN_MOTION_DDOT = 0

CCSDS_OMM_VERS = 2.0
CREATION_DATE  = 
ORIGINATOR     = 

OBJECT_NAME    = 2025-226D
OBJECT_ID      = 2025-226D
CENTER_NAME    = EARTH
REF_FRAME      = TEME
TIME_SYSTEM    = UTC
MEAN_ELEMENT_THEORY = SGP/SGP4

EPOCH          = 2025-11-08T08:57:37.694016
MEAN_MOTION    = 15.58344719
ECCENTRICITY   = .0018162
INCLINATION    = 97.6484
RA_OF_ASC_NODE = 27.2688
ARG_OF_PERICENTER = 285.3521
MEAN_ANOMALY   = 74.5727

EPHEMERIS_TYPE = 0
CLASSIFICATION_TYPE = U
NORAD_CAT_ID   = 65944
ELEMENT_SET_NO = 999
REV_AT_EPOCH   = 430
BSTAR          = .48105E-1
MEAN_MOTION_DOT = .4217813E-1
MEAN_MOTION_DDOT = 0

CCSDS_OMM_VERS = 2.0
CREATION_DATE  = 
ORIGINATOR     = 

OBJECT_NAME    = SHIYAN-31
OBJECT_ID      = 2025-227A
CENTER_NAME    = EARTH
REF_FRAME      = TEME
TIME_SYSTEM    = UTC
MEAN_ELEMENT_THEORY = SGP/SGP4

EPOCH          = 2025-11-08T11:00:52.618176
MEAN_MOTION    = 15.20514621
ECCENTRICITY   = .0011605
INCLINATION    = 80.0059
RA_OF_ASC_NODE = 67.4722
ARG_OF_PERICENTER = 183.5729
MEAN_ANOMALY   = 176.5417

EPHEMERIS_TYPE = 0
CLASSIFICATION_TYPE = U
NORAD_CAT_ID   = 65945
ELEMENT_SET_NO = 999
REV_AT_EPOCH   = 396
BSTAR          = .63433E-3
MEAN_MOTION_DOT = .13921E-3
MEAN_MOTION_DDOT = 0

CCSDS_OMM_VERS = 2.0
CREATION_DATE  = 
ORIGINATOR     = 

OBJECT_NAME    = CZ-2D R/B
OBJECT_ID      = 2025-227B
CENTER_NAME    = EARTH
REF_FRAME      = TEME
TIME_SYSTEM    = UTC
MEAN_ELEMENT_THEORY = SGP/SGP4

EPOCH          = 2025-11-08T11:17:07.489248
MEAN_MOTION    = 15.27606114
ECCENTRICITY   = .0021208
INCLINATION    = 80.1563
RA_OF_ASC_NODE = 67.7873
ARG_OF_PERICENTER = 309.2206
MEAN_ANOMALY   = 50.7142

EPHEMERIS_TYPE = 0
CLASSIFICATION_TYPE = U
NORAD_CAT_ID   = 65946
ELEMENT_SET_NO = 999
REV_AT_EPOCH   = 398
BSTAR          = .51927E-3
MEAN_MOTION_DOT = .14136E-3
MEAN_MOTION_DDOT = 0

CCSDS_OMM_VERS = 2.0
CREATION_DATE  = 
ORIGINATOR     = 

OBJECT_NAME    = KUIPER-00101
OBJECT_ID      = 2025-228A
CENTER_NAME    = EARTH
REF_FRAME      = TEME
TIME_SYSTEM    = UTC
MEAN_ELEMENT_THEORY = SGP/SGP4

EPOCH          = 2025-11-07T22:54:48.757536
MEAN_MOTION    = 15.34985931
ECCENTRICITY   = .00058313
INCLINATION    = 51.8773
RA_OF_ASC_NODE = 188.1622
ARG_OF_PERICENTER = 222.5602
MEAN_ANOMALY   = 137.4932

EPHEMERIS_TYPE = 0
CLASSIFICATION_TYPE = U
NORAD_CAT_ID   = 65947
ELEMENT_SET_NO = 999
REV_AT_EPOCH   = 507
BSTAR          = .13788521E-2
MEAN_MOTION_DOT = .4745E-3
MEAN_MOTION_DDOT = 0

CCSDS_OMM_VERS = 2.0
CREATION_DATE  = 
ORIGINATOR     = 

OBJECT_NAME    = KUIPER-00113
OBJECT_ID      = 2025-228B
CENTER_NAME    = EARTH
REF_FRAME      = TEME
TIME_SYSTEM    = UTC
MEAN_ELEMENT_THEORY = SGP/SGP4

EPOCH          = 2025-11-07T22:48:34.710336
MEAN_MOTION    = 15.35266845
ECCENTRICITY   = .00062082
INCLINATION    = 51.8779
RA_OF_ASC_NODE = 188.1344
ARG_OF_PERICENTER = 219.9885
MEAN_ANOMALY   = 140.0645

EPHEMERIS_TYPE = 0
CLASSIFICATION_TYPE = U
NORAD_CAT_ID   = 65948
ELEMENT_SET_NO = 999
REV_AT_EPOCH   = 507
BSTAR          = .700882E-3
MEAN_MOTION_DOT = .24075E-3
MEAN_MOTION_DDOT = 0

CCSDS_OMM_VERS = 2.0
CREATION_DATE  = 
ORIGINATOR     = 

OBJECT_NAME    = KUIPER-00117
OBJECT_ID      = 2025-228C
CENTER_NAME    = EARTH
REF_FRAME      = TEME
TIME_SYSTEM    = UTC
MEAN_ELEMENT_THEORY = SGP/SGP4

EPOCH          = 2025-11-08T06:38:16.665792
MEAN_MOTION    = 15.35245528
ECCENTRICITY   = .00059686
INCLINATION    = 51.8777
RA_OF_ASC_NODE = 186.5700
ARG_OF_PERICENTER = 221.2926
MEAN_ANOMALY   = 138.7609

EPHEMERIS_TYPE = 0
CLASSIFICATION_TYPE = U
NORAD_CAT_ID   = 65949
ELEMENT_SET_NO = 999
REV_AT_EPOCH   = 512
BSTAR          = .10594143E-2
MEAN_MOTION_DOT = .36621E-3
MEAN_MOTION_DDOT = 0

