2025-226A               
1 65938U 25226A   25312.53832516  .00012715  00000+0  74086-3 0  9997
2 65938  97.6659  26.7562 0015240 182.0337 178.0833 15.12039141  4303
2025-226B               
1 65939U 25226B   25312.50612543  .00007934  00000+0  49206-3 0  9994
2 65939  97.6611  26.6303 0021320 186.4699 173.6257 15.09817951  4286
2025-226C               
1 65940U 25226C   25312.54042984  .00012791  00000+0  74762-3 0  9998
2 65940  97.6568  26.7218 0015204 180.1417 179.9811 15.11926015  4299
YOTSUBA-KULOVER         
1 65941U 98067XN  25312.30502504  .00065941  00000+0  99592-3 0  9998
2 65941  51.6319 312.3485 0002609  25.0713 335.0404 15.54104125  4497
BOTAN                   
1 65942U 98067XP  25312.23052238  .00095447  00000+0  13745-2 0  9994
2 65942  51.6318 312.6015 0004708  39.0396 321.0934 15.55235340  4480
E-KAGAKU-1              
1 65943U 98067XQ  25312.30458320  .00067002  00000+0  10114-2 0  9998
2 65943  51.6329 312.3461 0004446  27.3880 332.7345 15.54104514  4495
2025-226D               
1 65944U 25226D   25312.37335294  .04217813  00000+0  48105-1 0  9998
2 65944  97.6484  27.2688 0018162 285.3521  74.5727 15.58344719  4301
SHIYAN-31               
1 65945U 25227A   25312.45894234  .00013921  00000+0  63433-3 0  9996
2 65945  80.0059  67.4722 0011605 183.5729 176.5417 15.20514621  3965
CZ-2D R/B               
1 65946U 25227B   25312.47022557  .00014136  00000+0  51927-3 0  9994
2 65946  80.1563  67.7873 0021208 309.2206  50.7142 15.27606114  3980
KUIPER-00101            
1 65947U 25228A   25311.95473099  .00047450  00000+0  13789-2 0  9997
2 65947  51.8773 188.1622 0005831 222.5602 137.4932 15.34985931  5077
KUIPER-00113            
1 65948U 25228B   25311.95040174  .00024075  00000+0  70088-3 0  9996
2 65948  51.8779 188.1344 0006208 219.9885 140.0645 15.35266845  5075
KUIPER-00117            
1 65949U 25228C   25312.27658178  .00036621  00000+0  10594-2 0  9997
2 65949  51.8777 186.5700 0005968 221.2926 138.7609 15.35245528  5121
